YAOGAN-30 03B           
1 43029U 17075B   26068.66083794  .00004149  00000+0  31129-3 0  9999
2 43029  34.9935 156.6050 0002510  89.1241 270.9754 15.02124587452380
STARLINK-30129          
1 56689U 23067B   26068.01515746  .00000191  00000+0  29243-4 0  9997
2 56689  43.0028 278.5242 0001125 259.4018 100.6698 15.02532206155558
