[{"OBJECT_NAME":"YAOGAN-30 03B","OBJECT_ID":"2017-075B","EPOCH":"2026-03-09T15:51:36.398016","MEAN_MOTION":15.02124587,"ECCENTRICITY":0.00025102,"INCLINATION":34.9935,"RA_OF_ASC_NODE":156.605,"ARG_OF_PERICENTER":89.1241,"MEAN_ANOMALY":270.9754,"EPHEMERIS_TYPE":0,"CLASSIFICATION_TYPE":"U","NORAD_CAT_ID":43029,"ELEMENT_SET_NO":999,"REV_AT_EPOCH":45238,"BSTAR":0.0003112917,"MEAN_MOTION_DOT":4.149e-5,"MEAN_MOTION_DDOT":0},{"OBJECT_NAME":"STARLINK-30129","OBJECT_ID":"2023-067B","EPOCH":"2026-03-09T00:21:49.604544","MEAN_MOTION":15.02532206,"ECCENTRICITY":0.00011255,"INCLINATION":43.0028,"RA_OF_ASC_NODE":278.5242,"ARG_OF_PERICENTER":259.4018,"MEAN_ANOMALY":100.6698,"EPHEMERIS_TYPE":0,"CLASSIFICATION_TYPE":"U","NORAD_CAT_ID":56689,"ELEMENT_SET_NO":999,"REV_AT_EPOCH":15555,"BSTAR":2.9242852e-5,"MEAN_MOTION_DOT":1.91e-6,"MEAN_MOTION_DDOT":0}]
